0 COSMOS 593
1 06850U 73069F   13281.13788852 -.00000026  00000-0 -54623-4 0  7634
2 06850 074.0027 340.8957 0076943 111.2637 299.0266 12.59643819840179
0 COSMOS 593
1 06850U 73069F   13283.52398388  .00000002  00000-0  10573-3 0  7648
2 06850 074.0024 337.6617 0076924 107.5867 319.3292 12.59643502840472
0 COSMOS 593
1 06850U 73069F   13285.83846187  .00000017  00000-0  18952-3 0  7655
2 06850 074.0018 334.5246 0076924 104.0155 014.8682 12.59643455840760
0 COSMOS 593
1 06850U 73069F   13288.13638608  .00000002  00000-0  10364-3 0  7662
2 06850 074.0012 331.4099 0076906 100.4710 355.3377 12.59643710841054
0 COSMOS 593
1 06850U 73069F   13290.51310340 -.00000016  00000-0 -27815-5 0  7676
2 06850 074.0008 328.1880 0076888 096.8003 333.1198 12.59643930841354
0 COSMOS 593
1 06850U 73069F   13292.52021954 -.00000023  00000-0 -42708-4 0  7685
2 06850 074.0007 325.4671 0076894 093.7062 074.8545 12.59643980841607
0 COSMOS 593
1 06850U 73069F   13294.81074317 -.00000021  00000-0 -29299-4 0  7699
2 06850 074.0007 322.3619 0076900 090.1735 021.7686 12.59643788841895
